KALAMSAT-V2 & PSLV R/B  
1 43948U 19006B   21030.51252937  .00001417  00000+0  37129-4 0  9992
2 43948  98.8005 105.4280 0003670 204.8341 155.2725 15.41031792113373
MICROSAT-R DEB          
1 44134U 19006V   21030.29270487  .00098578  36657-5  68818-3 0  9990
2 44134  96.0669 148.5815 0290597 258.2374  98.6142 15.34577036 99143
MICROSAT-R DEB          
1 44381U 19006DC  21018.18373434  .00424467  37276-4  29873-2 0  9998
2 44381  94.5824 358.0174 0363468  29.8618 332.2825 15.19415618 88367
MICROSAT-R DEB          
1 44383U 19006DE  21030.14993091  .00068600  15447-5  10432-2 0  9998
2 44383  96.1902 101.8862 0726350 156.2416 207.4174 14.27948330 87624
